start=new Date('2021-10-02T00:00:00.000Z').valueOf();
sats=[{"MEAN_MOTION":"15.06397820","REF_FRAME":"TEME","RCS_SIZE":"LARGE","NORAD_CAT_ID":"46378","GP_ID":"185962402","CLASSIFICATION_TYPE":"U","SITE":"AFETR","MEAN_MOTION_DOT":"0.00000386","CENTER_NAME":"EARTH","LAUNCH_DATE":"2020-09-03","ECCENTRICITY":"0.00012150","TLE_LINE2":"2 46378  53.0568  43.4620 0001215 107.4461 252.6661 15.06397820 60788","APOAPSIS":"548.062","OBJECT_NAME":"STARLINK-1751","ELEMENT_SET_NO":"999","EPOCH":"2021-10-01T19:55:12.284256","BSTAR":"0.00004483700000","TIME_SYSTEM":"UTC","DECAY_DATE":null,"EPHEMERIS_TYPE":"0","TLE_LINE1":"1 46378U 20062BF  21274.83000329  .00000386  00000-0  44837-4 0  9996","INCLINATION":"53.0568","REV_AT_EPOCH":"6078","ARG_OF_PERICENTER":"107.4461","SEMIMAJOR_AXIS":"6925.355","OBJECT_ID":"2020-062BF","PERIOD":"95.592","COUNTRY_CODE":"US","MEAN_MOTION_DDOT":"0.0000000000000","PERIAPSIS":"546.379","RA_OF_ASC_NODE":"43.4620","OBJECT_TYPE":"PAYLOAD","MEAN_ANOMALY":"252.6661","FILE":"3139397","MEAN_ELEMENT_THEORY":"SGP4"},{"FILE":"3139397","MEAN_ELEMENT_THEORY":"SGP4","MEAN_ANOMALY":"295.7378","OBJECT_TYPE":"PAYLOAD","PERIOD":"90.525","COUNTRY_CODE":"US","MEAN_MOTION_DDOT":"0.0000399630000","REV_AT_EPOCH":"6237","ARG_OF_PERICENTER":"64.4033","OBJECT_ID":"2020-062BG","SEMIMAJOR_AXIS":"6678.389","RA_OF_ASC_NODE":"289.0358","PERIAPSIS":"297.755","OBJECT_NAME":"STARLINK-1756","EPOCH":"2021-10-01T17:54:34.081920","ELEMENT_SET_NO":"999","APOAPSIS":"302.752","EPHEMERIS_TYPE":"0","TLE_LINE1":"1 46379U 20062BG  21274.74622780  .00279407  39963-4  88790-3 0  9999","INCLINATION":"53.0309","BSTAR":"0.00088790000000","TIME_SYSTEM":"UTC","DECAY_DATE":null,"RCS_SIZE":"LARGE","NORAD_CAT_ID":"46379","GP_ID":"185960654","CLASSIFICATION_TYPE":"U","MEAN_MOTION":"15.90725466","REF_FRAME":"TEME","ECCENTRICITY":"0.00037410","TLE_LINE2":"2 46379  53.0309 289.0358 0003741  64.4033 295.7378 15.90725466 62375","SITE":"AFETR","CENTER_NAME":"EARTH","MEAN_MOTION_DOT":"0.00279407","LAUNCH_DATE":"2020-09-03"},{"BSTAR":"0.00000102570000","TIME_SYSTEM":"UTC","DECAY_DATE":null,"EPHEMERIS_TYPE":"0","TLE_LINE1":"1 46380U 20062BH  21274.78531329 -.00000266  00000-0  10257-5 0  9990","INCLINATION":"53.0533","APOAPSIS":"548.391","OBJECT_NAME":"STARLINK-1758","EPOCH":"2021-10-01T18:50:51.068256","ELEMENT_SET_NO":"999","SITE":"AFETR","CENTER_NAME":"EARTH","MEAN_MOTION_DOT":"-0.00000266","LAUNCH_DATE":"2020-09-03","ECCENTRICITY":"0.00016860","TLE_LINE2":"2 46380  53.0533  68.6517 0001686 100.0080 260.1099 15.06396905 60439","MEAN_MOTION":"15.06396905","REF_FRAME":"TEME","RCS_SIZE":"LARGE","NORAD_CAT_ID":"46380","GP_ID":"185960904","CLASSIFICATION_TYPE":"U","MEAN_ANOMALY":"260.1099","OBJECT_TYPE":"PAYLOAD","FILE":"3139397","MEAN_ELEMENT_THEORY":"SGP4","PERIAPSIS":"546.055","RA_OF_ASC_NODE":"68.6517","REV_AT_EPOCH":"6043","ARG_OF_PERICENTER":"100.0080","SEMIMAJOR_AXIS":"6925.358","OBJECT_ID":"2020-062BH","PERIOD":"95.592","COUNTRY_CODE":"US","MEAN_MOTION_DDOT":"0.0000000000000"},{"MEAN_ELEMENT_THEORY":"SGP4","FILE":"3139397","MEAN_ANOMALY":"245.4973","OBJECT_TYPE":"PAYLOAD","RA_OF_ASC_NODE":"43.4449","PERIAPSIS":"546.384","COUNTRY_CODE":"US","MEAN_MOTION_DDOT":"0.0000000000000","PERIOD":"95.592","OBJECT_ID":"2020-062BK","SEMIMAJOR_AXIS":"6925.329","ARG_OF_PERICENTER":"114.6138","REV_AT_EPOCH":"6079","TLE_LINE1":"1 46382U 20062BK  21274.83367337  .00002859  00000-0  21072-3 0  9998","INCLINATION":"53.0558","EPHEMERIS_TYPE":"0","DECAY_DATE":null,"TIME_SYSTEM":"UTC","BSTAR":"0.00021072000000","EPOCH":"2021-10-01T20:00:29.379168","ELEMENT_SET_NO":"999","OBJECT_NAME":"STARLINK-1769","APOAPSIS":"548.004","TLE_LINE2":"2 46382  53.0558  43.4449 0001170 114.6138 245.4973 15.06406318 60792","ECCENTRICITY":"0.00011700","LAUNCH_DATE":"2020-09-03","MEAN_MOTION_DOT":"0.00002859","CENTER_NAME":"EARTH","SITE":"AFETR","CLASSIFICATION_TYPE":"U","GP_ID":"185962149","NORAD_CAT_ID":"46382","RCS_SIZE":"LARGE","REF_FRAME":"TEME","MEAN_MOTION":"15.06406318"},{"OBJECT_TYPE":"PAYLOAD","MEAN_ANOMALY":"268.9613","FILE":"3139397","MEAN_ELEMENT_THEORY":"SGP4","PERIAPSIS":"545.981","RA_OF_ASC_NODE":"88.2002","REV_AT_EPOCH":"6016","ARG_OF_PERICENTER":"91.1584","OBJECT_ID":"2020-062BL","SEMIMAJOR_AXIS":"6925.373","PERIOD":"95.593","MEAN_MOTION_DDOT":"0.0000000000000","COUNTRY_CODE":"US","BSTAR":"0.00006923400000","TIME_SYSTEM":"UTC","DECAY_DATE":null,"EPHEMERIS_TYPE":"0","TLE_LINE1":"1 46383U 20062BL  21274.88667591  .00000750  00000-0  69234-4 0  9990","INCLINATION":"53.0540","APOAPSIS":"548.495","OBJECT_NAME":"STARLINK-1770","ELEMENT_SET_NO":"999","EPOCH":"2021-10-01T21:16:48.798624","SITE":"AFETR","MEAN_MOTION_DOT":"0.00000750","CENTER_NAME":"EARTH","LAUNCH_DATE":"2020-09-03","ECCENTRICITY":"0.00018150","TLE_LINE2":"2 46383  53.0540  88.2002 0001815  91.1584 268.9613 15.06392081 60169","REF_FRAME":"TEME","MEAN_MOTION":"15.06392081","RCS_SIZE":"LARGE","NORAD_CAT_ID":"46383","GP_ID":"185961902","CLASSIFICATION_TYPE":"U"},{"REF_FRAME":"TEME","MEAN_MOTION":"15.06414611","NORAD_CAT_ID":"46384","GP_ID":"185961155","CLASSIFICATION_TYPE":"U","RCS_SIZE":"LARGE","CENTER_NAME":"EARTH","MEAN_MOTION_DOT":"0.00001211","LAUNCH_DATE":"2020-09-03","SITE":"AFETR","ECCENTRICITY":"0.00021170","TLE_LINE2":"2 46384  53.0536  88.4694 0002117  83.9499 276.1731 15.06414611 60159","APOAPSIS":"548.635","EPOCH":"2021-10-01T19:46:33.505824","ELEMENT_SET_NO":"999","OBJECT_NAME":"STARLINK-1771","TIME_SYSTEM":"UTC","DECAY_DATE":null,"BSTAR":"0.00010019000000","INCLINATION":"53.0536","TLE_LINE1":"1 46384U 20062BM  21274.82399891  .00001211  00000-0  10019-3 0  9999","EPHEMERIS_TYPE":"0","ARG_OF_PERICENTER":"83.9499","OBJECT_ID":"2020-062BM","SEMIMAJOR_AXIS":"6925.304","REV_AT_EPOCH":"6015","PERIOD":"95.591","COUNTRY_CODE":"US","MEAN_MOTION_DDOT":"0.0000000000000","PERIAPSIS":"545.703","RA_OF_ASC_NODE":"88.4694","OBJECT_TYPE":"PAYLOAD","MEAN_ANOMALY":"276.1731","MEAN_ELEMENT_THEORY":"SGP4","FILE":"3139397"},{"MEAN_ELEMENT_THEORY":"SGP4","FILE":"3139397","OBJECT_TYPE":"PAYLOAD","MEAN_ANOMALY":"298.2785","PERIOD":"95.592","COUNTRY_CODE":"US","MEAN_MOTION_DDOT":"0.0000000000000","ARG_OF_PERICENTER":"61.8356","SEMIMAJOR_AXIS":"6925.323","OBJECT_ID":"2020-070A","REV_AT_EPOCH":"5532","RA_OF_ASC_NODE":"249.3792","PERIAPSIS":"546.150","ELEMENT_SET_NO":"999","EPOCH":"2021-10-01T14:59:56.523264","OBJECT_NAME":"STARLINK-1644","APOAPSIS":"548.225","TLE_LINE1":"1 46532U 20070A   21274.62495976  .00000460  00000-0  49734-4 0  9994","INCLINATION":"53.0536","EPHEMERIS_TYPE":"0","TIME_SYSTEM":"UTC","DECAY_DATE":null,"BSTAR":"0.00004973400000","GP_ID":"185961169","NORAD_CAT_ID":"46532","CLASSIFICATION_TYPE":"U","RCS_SIZE":"LARGE","MEAN_MOTION":"15.06408435","REF_FRAME":"TEME","ECCENTRICITY":"0.00014980","TLE_LINE2":"2 46532  53.0536 249.3792 0001498  61.8356 298.2785 15.06408435 55323","CENTER_NAME":"EARTH","MEAN_MOTION_DOT":"0.00000460","LAUNCH_DATE":"2020-10-06","SITE":"AFETR"},{"BSTAR":"0.00001981000000","DECAY_DATE":null,"TIME_SYSTEM":"UTC","EPHEMERIS_TYPE":"0","TLE_LINE1":"1 46533U 20070B   21274.63603013  .00000014  00000-0  19810-4 0  9996","INCLINATION":"53.0550","APOAPSIS":"548.218","OBJECT_NAME":"STARLINK-1648","EPOCH":"2021-10-01T15:15:53.003232","ELEMENT_SET_NO":"999","SITE":"AFETR","LAUNCH_DATE":"2020-10-06","MEAN_MOTION_DOT":"0.00000014","CENTER_NAME":"EARTH","TLE_LINE2":"2 46533  53.0550 249.3403 0001441  63.6658 296.4479 15.06397917 55324","ECCENTRICITY":"0.00014410","MEAN_MOTION":"15.06397917","REF_FRAME":"TEME","RCS_SIZE":"LARGE","CLASSIFICATION_TYPE":"U","NORAD_CAT_ID":"46533","GP_ID":"185961419","MEAN_ANOMALY":"296.4479","OBJECT_TYPE":"PAYLOAD","FILE":"3139397","MEAN_ELEMENT_THEORY":"SGP4","PERIAPSIS":"546.222","RA_OF_ASC_NODE":"249.3403","REV_AT_EPOCH":"5532","OBJECT_ID":"2020-070B","SEMIMAJOR_AXIS":"6925.355","ARG_OF_PERICENTER":"63.6658","COUNTRY_CODE":"US","MEAN_MOTION_DDOT":"0.0000000000000","PERIOD":"95.592"},{"RCS_SIZE":"LARGE","CLASSIFICATION_TYPE":"U","GP_ID":"185925534","NORAD_CAT_ID":"46534","MEAN_MOTION":"15.06465302","REF_FRAME":"TEME","ECCENTRICITY":"0.00010630","TLE_LINE2":"2 46534  53.0528 250.3047 0001063  70.3687 289.7417 15.06465302 55290","SITE":"AFETR","LAUNCH_DATE":"2020-10-06","CENTER_NAME":"EARTH","MEAN_MOTION_DOT":"-0.00012668","OBJECT_NAME":"STARLINK-1659","ELEMENT_SET_NO":"999","EPOCH":"2021-10-01T10:02:40.231680","APOAPSIS":"547.750","EPHEMERIS_TYPE":"0","TLE_LINE1":"1 46534U 20070C   21274.41852120 -.00012668  00000-0 -83161-3 0  9997","INCLINATION":"53.0528","BSTAR":"-0.00083161000000","DECAY_DATE":null,"TIME_SYSTEM":"UTC","MEAN_MOTION_DDOT":"0.0000000000000","COUNTRY_CODE":"US","PERIOD":"95.588","REV_AT_EPOCH":"5529","OBJECT_ID":"2020-070C","SEMIMAJOR_AXIS":"6925.148","ARG_OF_PERICENTER":"70.3687","RA_OF_ASC_NODE":"250.3047","PERIAPSIS":"546.277","FILE":"3138865","MEAN_ELEMENT_THEORY":"SGP4","MEAN_ANOMALY":"289.7417","OBJECT_TYPE":"PAYLOAD"},{"OBJECT_ID":"2020-070D","SEMIMAJOR_AXIS":"6925.083","ARG_OF_PERICENTER":"69.7411","REV_AT_EPOCH":"5532","COUNTRY_CODE":"US","MEAN_MOTION_DDOT":"0.0000000000000","PERIOD":"95.587","PERIAPSIS":"546.370","RA_OF_ASC_NODE":"249.1666","MEAN_ANOMALY":"290.3667","OBJECT_TYPE":"PAYLOAD","MEAN_ELEMENT_THEORY":"SGP4","FILE":"3139397","MEAN_MOTION":"15.06486506","REF_FRAME":"TEME","CLASSIFICATION_TYPE":"U","NORAD_CAT_ID":"46535","GP_ID":"185962417","RCS_SIZE":"LARGE","LAUNCH_DATE":"2020-10-06","CENTER_NAME":"EARTH","MEAN_MOTION_DOT":"0.00010705","SITE":"AFETR","ECCENTRICITY":"0.00008360","TLE_LINE2":"2 46535  53.0535 249.1666 0000836  69.7411 290.3667 15.06486506 55324","APOAPSIS":"547.527","ELEMENT_SET_NO":"999","EPOCH":"2021-10-01T16:08:49.369632","OBJECT_NAME":"STARLINK-1663","DECAY_DATE":null,"TIME_SYSTEM":"UTC","BSTAR":"0.00073472000000","TLE_LINE1":"1 46535U 20070D   21274.67279363  .00010705  00000-0  73472-3 0  9990","INCLINATION":"53.0535","EPHEMERIS_TYPE":"0"}];
